{"fetched_at":"2026-07-16T06:42:35.236Z","source":"https://celestrak.org/NORAD/elements/gp.php?GROUP=planet&FORMAT=JSON","constellation":"superdove","records":[{"OBJECT_NAME":"FLOCK 4BE-3","OBJECT_ID":"2024-149CX","EPOCH":"2026-07-15T18:20:55.220064","CLASSIFICATION_TYPE":"U","MEAN_MOTION":15.42405589,"ECCENTRICITY":0.00050943,"INCLINATION":97.3692,"RA_OF_ASC_NODE":280.9661,"ARG_OF_PERICENTER":166.975,"MEAN_ANOMALY":193.163,"EPHEMERIS_TYPE":0,"NORAD_CAT_ID":60561,"ELEMENT_SET_NO":999,"REV_AT_EPOCH":10674,"BSTAR":0.000241255,"MEAN_MOTION_DOT":0.00010342,"MEAN_MOTION_DDOT":0},{"OBJECT_NAME":"FLOCK 4BE-19","OBJECT_ID":"2024-149CZ","EPOCH":"2026-07-15T18:04:03.202176","CLASSIFICATION_TYPE":"U","MEAN_MOTION":15.45667182,"ECCENTRICITY":0.00061163,"INCLINATION":97.3744,"RA_OF_ASC_NODE":282.6405,"ARG_OF_PERICENTER":173.5672,"MEAN_ANOMALY":186.5656,"EPHEMERIS_TYPE":0,"NORAD_CAT_ID":60563,"ELEMENT_SET_NO":999,"REV_AT_EPOCH":10683,"BSTAR":0.00033133788,"MEAN_MOTION_DOT":0.00015911,"MEAN_MOTION_DDOT":0},{"OBJECT_NAME":"FLOCK 4G-8","OBJECT_ID":"2025-009E","EPOCH":"2026-07-15T17:32:31.488864","CLASSIFICATION_TYPE":"U","MEAN_MOTION":15.30250579,"ECCENTRICITY":0.00040991,"INCLINATION":97.4007,"RA_OF_ASC_NODE":278.6243,"ARG_OF_PERICENTER":190.3405,"MEAN_ANOMALY":169.7752,"EPHEMERIS_TYPE":0,"NORAD_CAT_ID":62613,"ELEMENT_SET_NO":999,"REV_AT_EPOCH":8328,"BSTAR":0.00020845124,"MEAN_MOTION_DOT":0.00006024,"MEAN_MOTION_DDOT":0},{"OBJECT_NAME":"FLOCK 4G-13","OBJECT_ID":"2025-009N","EPOCH":"2026-07-15T17:51:43.123104","CLASSIFICATION_TYPE":"U","MEAN_MOTION":15.48960627,"ECCENTRICITY":0.00065454,"INCLINATION":97.395,"RA_OF_ASC_NODE":280.6107,"ARG_OF_PERICENTER":197.2487,"MEAN_ANOMALY":162.8542,"EPHEMERIS_TYPE":0,"NORAD_CAT_ID":62621,"ELEMENT_SET_NO":999,"REV_AT_EPOCH":8341,"BSTAR":0.0011341331,"MEAN_MOTION_DOT":0.00061628,"MEAN_MOTION_DDOT":0},{"OBJECT_NAME":"FLOCK 4G-9","OBJECT_ID":"2025-009P","EPOCH":"2026-07-15T18:06:07.200864","CLASSIFICATION_TYPE":"U","MEAN_MOTION":15.28515818,"ECCENTRICITY":0.00041213,"INCLINATION":97.3959,"RA_OF_ASC_NODE":277.5005,"ARG_OF_PERICENTER":202.9811,"MEAN_ANOMALY":157.1245,"EPHEMERIS_TYPE":0,"NORAD_CAT_ID":62622,"ELEMENT_SET_NO":999,"REV_AT_EPOCH":8322,"BSTAR":0.00019946659,"MEAN_MOTION_DOT":0.0000546,"MEAN_MOTION_DDOT":0},{"OBJECT_NAME":"FLOCK 4G-7","OBJECT_ID":"2025-009R","EPOCH":"2026-07-15T21:52:22.776672","CLASSIFICATION_TYPE":"U","MEAN_MOTION":15.29883716,"ECCENTRICITY":0.00026757,"INCLINATION":97.3943,"RA_OF_ASC_NODE":278.0747,"ARG_OF_PERICENTER":179.5113,"MEAN_ANOMALY":180.613,"EPHEMERIS_TYPE":0,"NORAD_CAT_ID":62624,"ELEMENT_SET_NO":999,"REV_AT_EPOCH":8329,"BSTAR":0.0001938334,"MEAN_MOTION_DOT":0.00005532,"MEAN_MOTION_DDOT":0},{"OBJECT_NAME":"FLOCK 4G-12","OBJECT_ID":"2025-009S","EPOCH":"2026-07-15T18:37:14.336832","CLASSIFICATION_TYPE":"U","MEAN_MOTION":15.29780726,"ECCENTRICITY":0.00042307,"INCLINATION":97.4021,"RA_OF_ASC_NODE":278.4897,"ARG_OF_PERICENTER":186.7024,"MEAN_ANOMALY":173.416,"EPHEMERIS_TYPE":0,"NORAD_CAT_ID":62625,"ELEMENT_SET_NO":999,"REV_AT_EPOCH":8327,"BSTAR":0.00023710581,"MEAN_MOTION_DOT":0.00006764,"MEAN_MOTION_DDOT":0},{"OBJECT_NAME":"FLOCK 4G-11","OBJECT_ID":"2025-009W","EPOCH":"2026-07-15T18:15:22.860000","CLASSIFICATION_TYPE":"U","MEAN_MOTION":15.29889585,"ECCENTRICITY":0.00027065,"INCLINATION":97.3923,"RA_OF_ASC_NODE":278.0324,"ARG_OF_PERICENTER":182.5471,"MEAN_ANOMALY":177.5756,"EPHEMERIS_TYPE":0,"NORAD_CAT_ID":62629,"ELEMENT_SET_NO":999,"REV_AT_EPOCH":8328,"BSTAR":0.00021690164,"MEAN_MOTION_DOT":0.00006201,"MEAN_MOTION_DDOT":0},{"OBJECT_NAME":"FLOCK 4G-26","OBJECT_ID":"2025-009AA","EPOCH":"2026-07-15T18:34:49.836288","CLASSIFICATION_TYPE":"U","MEAN_MOTION":15.30079823,"ECCENTRICITY":0.0003683,"INCLINATION":97.4016,"RA_OF_ASC_NODE":278.6496,"ARG_OF_PERICENTER":175.594,"MEAN_ANOMALY":184.5334,"EPHEMERIS_TYPE":0,"NORAD_CAT_ID":62633,"ELEMENT_SET_NO":999,"REV_AT_EPOCH":8328,"BSTAR":0.00025841046,"MEAN_MOTION_DOT":0.00007448,"MEAN_MOTION_DDOT":0},{"OBJECT_NAME":"FLOCK 4G-28","OBJECT_ID":"2025-009AB","EPOCH":"2026-07-15T22:24:08.895456","CLASSIFICATION_TYPE":"U","MEAN_MOTION":15.35288655,"ECCENTRICITY":0.00021545,"INCLINATION":97.403,"RA_OF_ASC_NODE":281.599,"ARG_OF_PERICENTER":160.2583,"MEAN_ANOMALY":199.8745,"EPHEMERIS_TYPE":0,"NORAD_CAT_ID":62634,"ELEMENT_SET_NO":999,"REV_AT_EPOCH":8349,"BSTAR":0.00014948361,"MEAN_MOTION_DOT":0.0000504,"MEAN_MOTION_DDOT":0},{"OBJECT_NAME":"FLOCK 4G-24","OBJECT_ID":"2025-009AE","EPOCH":"2026-07-15T18:50:53.446848","CLASSIFICATION_TYPE":"U","MEAN_MOTION":15.30375772,"ECCENTRICITY":0.00037693,"INCLINATION":97.4025,"RA_OF_ASC_NODE":278.9658,"ARG_OF_PERICENTER":164.0898,"MEAN_ANOMALY":196.0462,"EPHEMERIS_TYPE":0,"NORAD_CAT_ID":62637,"ELEMENT_SET_NO":999,"REV_AT_EPOCH":8330,"BSTAR":0.0002189221,"MEAN_MOTION_DOT":0.00006356,"MEAN_MOTION_DDOT":0},{"OBJECT_NAME":"FLOCK 4G-3","OBJECT_ID":"2025-009AG","EPOCH":"2026-07-15T18:41:21.167808","CLASSIFICATION_TYPE":"U","MEAN_MOTION":15.29881635,"ECCENTRICITY":0.00033152,"INCLINATION":97.4025,"RA_OF_ASC_NODE":278.6668,"ARG_OF_PERICENTER":168.4574,"MEAN_ANOMALY":191.6743,"EPHEMERIS_TYPE":0,"NORAD_CAT_ID":62639,"ELEMENT_SET_NO":999,"REV_AT_EPOCH":8327,"BSTAR":0.00023127069,"MEAN_MOTION_DOT":0.00006616,"MEAN_MOTION_DDOT":0},{"OBJECT_NAME":"FLOCK 4G-27","OBJECT_ID":"2025-009AJ","EPOCH":"2026-07-15T19:09:34.666560","CLASSIFICATION_TYPE":"U","MEAN_MOTION":15.29815815,"ECCENTRICITY":0.00026061,"INCLINATION":97.3934,"RA_OF_ASC_NODE":278.0338,"ARG_OF_PERICENTER":167.918,"MEAN_ANOMALY":192.2124,"EPHEMERIS_TYPE":0,"NORAD_CAT_ID":62641,"ELEMENT_SET_NO":999,"REV_AT_EPOCH":8327,"BSTAR":0.00020483903,"MEAN_MOTION_DOT":0.00005839,"MEAN_MOTION_DDOT":0},{"OBJECT_NAME":"FLOCK 4G-29","OBJECT_ID":"2025-009AK","EPOCH":"2026-07-15T18:48:26.849376","CLASSIFICATION_TYPE":"U","MEAN_MOTION":15.29868294,"ECCENTRICITY":0.00034657,"INCLINATION":97.4021,"RA_OF_ASC_NODE":278.6316,"ARG_OF_PERICENTER":164.9829,"MEAN_ANOMALY":195.1515,"EPHEMERIS_TYPE":0,"NORAD_CAT_ID":62642,"ELEMENT_SET_NO":999,"REV_AT_EPOCH":8327,"BSTAR":0.00019075356,"MEAN_MOTION_DOT":0.00005441,"MEAN_MOTION_DDOT":0},{"OBJECT_NAME":"FLOCK 4G-22","OBJECT_ID":"2025-009AN","EPOCH":"2026-07-15T22:23:27.662784","CLASSIFICATION_TYPE":"U","MEAN_MOTION":15.29782151,"ECCENTRICITY":0.00030275,"INCLINATION":97.4008,"RA_OF_ASC_NODE":278.8143,"ARG_OF_PERICENTER":160.6043,"MEAN_ANOMALY":199.5313,"EPHEMERIS_TYPE":0,"NORAD_CAT_ID":62645,"ELEMENT_SET_NO":999,"REV_AT_EPOCH":8331,"BSTAR":0.00021171842,"MEAN_MOTION_DOT":0.00006031,"MEAN_MOTION_DDOT":0},{"OBJECT_NAME":"FLOCK 4G-25","OBJECT_ID":"2025-009AP","EPOCH":"2026-07-15T18:37:08.072832","CLASSIFICATION_TYPE":"U","MEAN_MOTION":15.30017573,"ECCENTRICITY":0.00024643,"INCLINATION":97.4016,"RA_OF_ASC_NODE":278.7367,"ARG_OF_PERICENTER":160.9883,"MEAN_ANOMALY":199.145,"EPHEMERIS_TYPE":0,"NORAD_CAT_ID":62646,"ELEMENT_SET_NO":999,"REV_AT_EPOCH":8329,"BSTAR":0.00022308207,"MEAN_MOTION_DOT":0.00006406,"MEAN_MOTION_DDOT":0}]}
