FLOCK 4BE-3             
1 60561U 24149CX  26196.76452801  .00010342  00000+0  24126-3 0  9992
2 60561  97.3692 280.9661 0005094 166.9750 193.1630 15.42405589106744
FLOCK 4BE-19            
1 60563U 24149CZ  26196.75281484  .00015911  00000+0  33134-3 0  9996
2 60563  97.3744 282.6405 0006116 173.5672 186.5656 15.45667182106838
FLOCK 4G-8              
1 62613U 25009E   26196.73092001  .00006024  00000+0  20845-3 0  9993
2 62613  97.4007 278.6243 0004099 190.3405 169.7752 15.30250579 83288
FLOCK 4G-13             
1 62621U 25009N   26196.74424911  .00061628  00000+0  11341-2 0  9993
2 62621  97.3950 280.6107 0006545 197.2487 162.8542 15.48960627 83416
FLOCK 4G-9              
1 62622U 25009P   26196.75425001  .00005460  00000+0  19947-3 0  9999
2 62622  97.3959 277.5005 0004121 202.9811 157.1245 15.28515818 83223
FLOCK 4G-7              
1 62624U 25009R   26196.91137473  .00005532  00000+0  19383-3 0  9996
2 62624  97.3943 278.0747 0002675 179.5113 180.6130 15.29883716 83290
FLOCK 4G-12             
1 62625U 25009S   26196.77586038  .00006764  00000+0  23711-3 0  9994
2 62625  97.4021 278.4897 0004230 186.7024 173.4160 15.29780726 83277
FLOCK 4G-11             
1 62629U 25009W   26196.76068125  .00006201  00000+0  21690-3 0  9999
2 62629  97.3923 278.0324 0002706 182.5471 177.5756 15.29889585 83288
FLOCK 4G-26             
1 62633U 25009AA  26196.77418792  .00007448  00000+0  25841-3 0  9990
2 62633  97.4016 278.6496 0003683 175.5940 184.5334 15.30079823 83289
FLOCK 4G-28             
1 62634U 25009AB  26196.93343629  .00005040  00000+0  14948-3 0  9997
2 62634  97.4030 281.5990 0002154 160.2583 199.8745 15.35288655 83492
FLOCK 4G-24             
1 62637U 25009AE  26196.78534082  .00006356  00000+0  21892-3 0  9995
2 62637  97.4025 278.9658 0003769 164.0898 196.0462 15.30375772 83301
FLOCK 4G-3              
1 62639U 25009AG  26196.77871722  .00006616  00000+0  23127-3 0  9993
2 62639  97.4025 278.6668 0003315 168.4574 191.6743 15.29881635 83274
FLOCK 4G-27             
1 62641U 25009AJ  26196.79831790  .00005839  00000+0  20484-3 0  9998
2 62641  97.3934 278.0338 0002606 167.9180 192.2124 15.29815815 83279
FLOCK 4G-29             
1 62642U 25009AK  26196.78364409  .00005441  00000+0  19075-3 0  9999
2 62642  97.4021 278.6316 0003465 164.9829 195.1515 15.29868294 83276
FLOCK 4G-22             
1 62645U 25009AN  26196.93295906  .00006031  00000+0  21172-3 0  9991
2 62645  97.4008 278.8143 0003027 160.6043 199.5313 15.29782151 83315
FLOCK 4G-25             
1 62646U 25009AP  26196.77578788  .00006406  00000+0  22308-3 0  9994
2 62646  97.4016 278.7367 0002464 160.9883 199.1450 15.30017573 83297
